[{"OBJECT_NAME":"HULIANWANG DIGUI-65","OBJECT_ID":"2025-174H","EPOCH":"2026-03-06T13:57:00.410400","MEAN_MOTION":13.24422477,"ECCENTRICITY":0.0001231,"INCLINATION":86.4841,"RA_OF_ASC_NODE":286.5665,"ARG_OF_PERICENTER":89.3612,"MEAN_ANOMALY":270.7663,"EPHEMERIS_TYPE":0,"CLASSIFICATION_TYPE":"U","NORAD_CAT_ID":65171,"ELEMENT_SET_NO":999,"REV_AT_EPOCH":2720,"BSTAR":0.00010344363,"MEAN_MOTION_DOT":5.9e-7,"MEAN_MOTION_DDOT":0},{"OBJECT_NAME":"HULIANWANG DIGUI-66","OBJECT_ID":"2025-174J","EPOCH":"2026-03-06T13:46:09.878016","MEAN_MOTION":13.24422087,"ECCENTRICITY":0.0001273,"INCLINATION":86.4877,"RA_OF_ASC_NODE":286.6356,"ARG_OF_PERICENTER":91.3389,"MEAN_ANOMALY":268.7891,"EPHEMERIS_TYPE":0,"CLASSIFICATION_TYPE":"U","NORAD_CAT_ID":65172,"ELEMENT_SET_NO":999,"REV_AT_EPOCH":2720,"BSTAR":0.0001194222,"MEAN_MOTION_DOT":6.6e-7,"MEAN_MOTION_DDOT":0},{"OBJECT_NAME":"HULIANWANG DIGUI-67","OBJECT_ID":"2025-174K","EPOCH":"2026-03-06T14:07:58.059552","MEAN_MOTION":13.24421724,"ECCENTRICITY":0.00012706,"INCLINATION":86.4888,"RA_OF_ASC_NODE":286.6643,"ARG_OF_PERICENTER":89.6562,"MEAN_ANOMALY":270.4717,"EPHEMERIS_TYPE":0,"CLASSIFICATION_TYPE":"U","NORAD_CAT_ID":65173,"ELEMENT_SET_NO":999,"REV_AT_EPOCH":2717,"BSTAR":7.1272575e-5,"MEAN_MOTION_DOT":4.5e-7,"MEAN_MOTION_DDOT":0},{"OBJECT_NAME":"HULIANWANG DIGUI-68","OBJECT_ID":"2025-178A","EPOCH":"2026-03-06T14:40:24.001824","MEAN_MOTION":13.24423846,"ECCENTRICITY":0.0002027,"INCLINATION":86.4944,"RA_OF_ASC_NODE":48.1345,"ARG_OF_PERICENTER":79.3854,"MEAN_ANOMALY":280.7509,"EPHEMERIS_TYPE":0,"CLASSIFICATION_TYPE":"U","NORAD_CAT_ID":65228,"ELEMENT_SET_NO":999,"REV_AT_EPOCH":2673,"BSTAR":-1.552463e-6,"MEAN_MOTION_DOT":1.4e-7,"MEAN_MOTION_DDOT":0},{"OBJECT_NAME":"HULIANWANG DIGUI-69","OBJECT_ID":"2025-178B","EPOCH":"2026-03-06T14:29:58.624800","MEAN_MOTION":13.24417657,"ECCENTRICITY":0.0001971,"INCLINATION":86.4964,"RA_OF_ASC_NODE":48.1721,"ARG_OF_PERICENTER":80.7464,"MEAN_ANOMALY":279.3893,"EPHEMERIS_TYPE":0,"CLASSIFICATION_TYPE":"U","NORAD_CAT_ID":65229,"ELEMENT_SET_NO":999,"REV_AT_EPOCH":2673,"BSTAR":8.623882e-6,"MEAN_MOTION_DOT":1.8e-7,"MEAN_MOTION_DDOT":0},{"OBJECT_NAME":"HULIANWANG DIGUI-70","OBJECT_ID":"2025-178C","EPOCH":"2026-03-06T14:19:02.025408","MEAN_MOTION":13.24418662,"ECCENTRICITY":0.00020718,"INCLINATION":86.4902,"RA_OF_ASC_NODE":48.0428,"ARG_OF_PERICENTER":79.2003,"MEAN_ANOMALY":280.9364,"EPHEMERIS_TYPE":0,"CLASSIFICATION_TYPE":"U","NORAD_CAT_ID":65230,"ELEMENT_SET_NO":999,"REV_AT_EPOCH":2673,"BSTAR":6.7650762e-5,"MEAN_MOTION_DOT":4.4e-7,"MEAN_MOTION_DDOT":0},{"OBJECT_NAME":"HULIANWANG DIGUI-71","OBJECT_ID":"2025-178D","EPOCH":"2026-03-06T14:08:07.065888","MEAN_MOTION":13.24419491,"ECCENTRICITY":0.00020247,"INCLINATION":86.4961,"RA_OF_ASC_NODE":48.1603,"ARG_OF_PERICENTER":80.4857,"MEAN_ANOMALY":279.6506,"EPHEMERIS_TYPE":0,"CLASSIFICATION_TYPE":"U","NORAD_CAT_ID":65231,"ELEMENT_SET_NO":999,"REV_AT_EPOCH":2673,"BSTAR":4.6585572e-5,"MEAN_MOTION_DOT":3.5e-7,"MEAN_MOTION_DDOT":0},{"OBJECT_NAME":"HULIANWANG DIGUI-72","OBJECT_ID":"2025-178E","EPOCH":"2026-03-06T13:57:10.617696","MEAN_MOTION":13.24419967,"ECCENTRICITY":0.00020236,"INCLINATION":86.4944,"RA_OF_ASC_NODE":48.1207,"ARG_OF_PERICENTER":81.3622,"MEAN_ANOMALY":278.7741,"EPHEMERIS_TYPE":0,"CLASSIFICATION_TYPE":"U","NORAD_CAT_ID":65232,"ELEMENT_SET_NO":999,"REV_AT_EPOCH":2673,"BSTAR":5.4651847e-5,"MEAN_MOTION_DOT":3.8e-7,"MEAN_MOTION_DDOT":0},{"OBJECT_NAME":"HULIANWANG DIGUI-73","OBJECT_ID":"2025-187A","EPOCH":"2026-03-06T14:13:05.668608","MEAN_MOTION":13.29342578,"ECCENTRICITY":0.00010481,"INCLINATION":50.0038,"RA_OF_ASC_NODE":213.8282,"ARG_OF_PERICENTER":143.1652,"MEAN_ANOMALY":216.9292,"EPHEMERIS_TYPE":0,"CLASSIFICATION_TYPE":"U","NORAD_CAT_ID":65305,"ELEMENT_SET_NO":999,"REV_AT_EPOCH":2605,"BSTAR":8.2113006e-5,"MEAN_MOTION_DOT":-8.6e-7,"MEAN_MOTION_DDOT":0},{"OBJECT_NAME":"HULIANWANG DIGUI-74","OBJECT_ID":"2025-187B","EPOCH":"2026-03-06T13:49:00.636384","MEAN_MOTION":13.29343019,"ECCENTRICITY":0.00010444,"INCLINATION":50.008,"RA_OF_ASC_NODE":213.8079,"ARG_OF_PERICENTER":143.8346,"MEAN_ANOMALY":216.2597,"EPHEMERIS_TYPE":0,"CLASSIFICATION_TYPE":"U","NORAD_CAT_ID":65306,"ELEMENT_SET_NO":999,"REV_AT_EPOCH":2605,"BSTAR":6.0460871e-5,"MEAN_MOTION_DOT":-9.6e-7,"MEAN_MOTION_DDOT":0},{"OBJECT_NAME":"HULIANWANG DIGUI-75","OBJECT_ID":"2025-187C","EPOCH":"2026-03-06T15:13:18.028416","MEAN_MOTION":13.29342022,"ECCENTRICITY":0.00010362,"INCLINATION":50.0072,"RA_OF_ASC_NODE":213.4398,"ARG_OF_PERICENTER":142.2583,"MEAN_ANOMALY":217.8363,"EPHEMERIS_TYPE":0,"CLASSIFICATION_TYPE":"U","NORAD_CAT_ID":65307,"ELEMENT_SET_NO":999,"REV_AT_EPOCH":2606,"BSTAR":7.1230349e-5,"MEAN_MOTION_DOT":-9.1e-7,"MEAN_MOTION_DDOT":0},{"OBJECT_NAME":"HULIANWANG DIGUI-76","OBJECT_ID":"2025-187D","EPOCH":"2026-03-06T14:49:31.149696","MEAN_MOTION":13.29339375,"ECCENTRICITY":0.00010291,"INCLINATION":49.9997,"RA_OF_ASC_NODE":213.8921,"ARG_OF_PERICENTER":140.7361,"MEAN_ANOMALY":219.3586,"EPHEMERIS_TYPE":0,"CLASSIFICATION_TYPE":"U","NORAD_CAT_ID":65308,"ELEMENT_SET_NO":999,"REV_AT_EPOCH":2605,"BSTAR":8.0615809e-5,"MEAN_MOTION_DOT":-8.7e-7,"MEAN_MOTION_DDOT":0},{"OBJECT_NAME":"HULIANWANG DIGUI-77","OBJECT_ID":"2025-187E","EPOCH":"2026-03-06T14:37:16.567392","MEAN_MOTION":13.2934129,"ECCENTRICITY":0.00010705,"INCLINATION":50.0031,"RA_OF_ASC_NODE":213.9022,"ARG_OF_PERICENTER":141.3034,"MEAN_ANOMALY":218.7915,"EPHEMERIS_TYPE":0,"CLASSIFICATION_TYPE":"U","NORAD_CAT_ID":65309,"ELEMENT_SET_NO":999,"REV_AT_EPOCH":2605,"BSTAR":7.4873635e-5,"MEAN_MOTION_DOT":-8.9e-7,"MEAN_MOTION_DDOT":0},{"OBJECT_NAME":"HULIANWANG DIGUI-78","OBJECT_ID":"2025-187F","EPOCH":"2026-03-06T13:37:07.759488","MEAN_MOTION":13.2934168,"ECCENTRICITY":0.00010209,"INCLINATION":50.0097,"RA_OF_ASC_NODE":213.7912,"ARG_OF_PERICENTER":143.6558,"MEAN_ANOMALY":216.4384,"EPHEMERIS_TYPE":0,"CLASSIFICATION_TYPE":"U","NORAD_CAT_ID":65310,"ELEMENT_SET_NO":999,"REV_AT_EPOCH":2605,"BSTAR":4.5255198e-5,"MEAN_MOTION_DOT":-1.03e-6,"MEAN_MOTION_DDOT":0},{"OBJECT_NAME":"HULIANWANG DIGUI-79","OBJECT_ID":"2025-187G","EPOCH":"2026-03-06T15:01:06.273984","MEAN_MOTION":13.29343177,"ECCENTRICITY":0.00010233,"INCLINATION":50.0026,"RA_OF_ASC_NODE":213.9801,"ARG_OF_PERICENTER":141.6025,"MEAN_ANOMALY":218.492,"EPHEMERIS_TYPE":0,"CLASSIFICATION_TYPE":"U","NORAD_CAT_ID":65311,"ELEMENT_SET_NO":999,"REV_AT_EPOCH":2605,"BSTAR":7.4156618e-5,"MEAN_MOTION_DOT":-9.0e-7,"MEAN_MOTION_DDOT":0},{"OBJECT_NAME":"HULIANWANG DIGUI-80","OBJECT_ID":"2025-187H","EPOCH":"2026-03-06T14:25:12.225216","MEAN_MOTION":13.29341418,"ECCENTRICITY":0.00010557,"INCLINATION":50.0017,"RA_OF_ASC_NODE":213.837,"ARG_OF_PERICENTER":140.7632,"MEAN_ANOMALY":219.3317,"EPHEMERIS_TYPE":0,"CLASSIFICATION_TYPE":"U","NORAD_CAT_ID":65312,"ELEMENT_SET_NO":999,"REV_AT_EPOCH":2605,"BSTAR":9.7631434e-5,"MEAN_MOTION_DOT":-7.9e-7,"MEAN_MOTION_DDOT":0}]
