HULIANWANG DIGUI-65     
1 65171U 25174H   26065.58125475  .00000059  00000+0  10344-3 0  9993
2 65171  86.4841 286.5665 0001231  89.3612 270.7663 13.24422477 27205
HULIANWANG DIGUI-66     
1 65172U 25174J   26065.57372544  .00000066  00000+0  11942-3 0  9997
2 65172  86.4877 286.6356 0001273  91.3389 268.7891 13.24422087 27200
HULIANWANG DIGUI-67     
1 65173U 25174K   26065.58886643  .00000045  00000+0  71273-4 0  9990
2 65173  86.4888 286.6643 0001270  89.6562 270.4717 13.24421724 27172
HULIANWANG DIGUI-68     
1 65228U 25178A   26065.61138891  .00000014  00000+0 -15525-5 0  9990
2 65228  86.4944  48.1345 0002027  79.3854 280.7509 13.24423846 26738
HULIANWANG DIGUI-69     
1 65229U 25178B   26065.60415075  .00000018  00000+0  86239-5 0  9995
2 65229  86.4964  48.1721 0001971  80.7464 279.3893 13.24417657 26732
HULIANWANG DIGUI-70     
1 65230U 25178C   26065.59655122  .00000044  00000+0  67651-4 0  9999
2 65230  86.4902  48.0428 0002071  79.2003 280.9364 13.24418662 26731
HULIANWANG DIGUI-71     
1 65231U 25178D   26065.58897067  .00000035  00000+0  46586-4 0  9999
2 65231  86.4961  48.1603 0002024  80.4857 279.6506 13.24419491 26736
HULIANWANG DIGUI-72     
1 65232U 25178E   26065.58137289  .00000038  00000+0  54652-4 0  9999
2 65232  86.4944  48.1207 0002023  81.3622 278.7741 13.24419967 26736
HULIANWANG DIGUI-73     
1 65305U 25187A   26065.59242672 -.00000086  00000+0  82113-4 0  9991
2 65305  50.0038 213.8282 0001048 143.1652 216.9292 13.29342578 26056
HULIANWANG DIGUI-74     
1 65306U 25187B   26065.57570181 -.00000096  00000+0  60461-4 0  9992
2 65306  50.0080 213.8079 0001044 143.8346 216.2597 13.29343019 26053
HULIANWANG DIGUI-75     
1 65307U 25187C   26065.63423644 -.00000091  00000+0  71230-4 0  9992
2 65307  50.0072 213.4398 0001036 142.2583 217.8363 13.29342022 26064
HULIANWANG DIGUI-76     
1 65308U 25187D   26065.61772164 -.00000087  00000+0  80616-4 0  9998
2 65308  49.9997 213.8921 0001029 140.7361 219.3586 13.29339375 26053
HULIANWANG DIGUI-77     
1 65309U 25187E   26065.60921953 -.00000089  00000+0  74874-4 0  9991
2 65309  50.0031 213.9022 0001070 141.3034 218.7915 13.29341290 26057
HULIANWANG DIGUI-78     
1 65310U 25187F   26065.56745092 -.00000103  00000+0  45255-4 0  9994
2 65310  50.0097 213.7912 0001020 143.6558 216.4384 13.29341680 26056
HULIANWANG DIGUI-79     
1 65311U 25187G   26065.62576706 -.00000090  00000+0  74157-4 0  9994
2 65311  50.0026 213.9801 0001023 141.6025 218.4920 13.29343177 26059
HULIANWANG DIGUI-80     
1 65312U 25187H   26065.60083594 -.00000079  00000+0  97631-4 0  9990
2 65312  50.0017 213.8370 0001055 140.7632 219.3317 13.29341418 26055
